NUVIEW BRAVO            
1 62457U 24252D   26164.88804207 -.00000205  00000+0  00000+0 0  9991
2 62457   0.0685 150.8757 0001793 330.7274  17.1751  1.00270509  3766
THURAYA-4               
1 62483U 25001A   26164.92880935  .00000149  00000+0  00000+0 0  9996
2 62483   0.0207  54.9364 0000366 183.7681  42.2096  1.00268217  4143
SHIJIAN-25 (SJ-25)      
1 62485U 25002A   26164.77108918 -.00000344  00000+0  00000+0 0  9994
2 62485   5.1048  61.1838 0052236 173.2448  72.5687  1.00269176  5326
TJS-14                  
1 62804U 25017A   26165.00463708  .00000126  00000+0  00000+0 0  9990
2 62804   0.7901 295.3835 0000957 289.5100  57.4580  1.00272901  5231
SPAINSAT NG I           
1 62852U 25021A   26164.91659650  .00000161  00000+0  00000+0 0  9999
2 62852   0.0123 328.2493 0000221 297.8551 355.1001  1.00269378  3952
QZS-6 (MICHIBIKI-6)     
1 62876U 25023A   26164.96868455 -.00000224  00000+0  00000+0 0  9998
2 62876   0.0458  66.5509 0001710  23.4795 251.4964  1.00271512  4912
ZHONGXING-10R           
1 63075U 25036A   26164.93095535 -.00000342  00000+0  00000+0 0  9993
2 63075   0.0327 247.5221 0003447 252.9895 207.3934  1.00273191  4923
TJS-15                  
1 63157U 25045A   26164.73833023 -.00000254  00000+0  00000+0 0  9996
2 63157   0.2796  85.4960 0004685 296.5136 240.2268  1.00272543  4726
TIANLIAN 2-04           
1 63361U 25062A   26164.96035698 -.00000122  00000+0  00000+0 0  9993
2 63361   4.3834 274.4888 0031724  10.2947  43.2625  1.00271678  4574
TJS-16                  
1 63397U 25064A   26164.65112330 -.00000095  00000+0  00000+0 0  9998
2 63397   1.0888  81.4744 0003372 288.9856 286.5162  1.00271351  4356
TJS-17                  
1 63524U 25073A   26164.65190330 -.00000059  00000+0  00000+0 0  9996
2 63524   1.0546  82.7223 0002099 295.8246 282.6321  1.00271862  4250
TIANLIAN 2-05           
1 63662U 25084A   26165.00576516  .00000137  00000+0  00000+0 0  9991
2 63662   4.4597 279.8724 0003109 146.3381 218.5426  1.00269018  4359
TJS-19                  
1 63924U 25097A   26164.74058086 -.00000266  00000+0  00000+0 0  9997
2 63924   3.2925 317.3828 0002297 240.9676 111.5152  1.00266676  4108
CHINASAT 3B             
1 64062U 25106A   26164.93758571 -.00000035  00000+0  00000+0 0  9993
2 64062   0.0264  97.2512 0002739  24.7279 285.1184  1.00270274  4028
SXM-10                  
1 64290U 25122A   26164.88154205 -.00000007  00000+0  00000+0 0  9991
2 64290   0.0184  21.5157 0001761 339.0507 102.8084  1.00270771  3651
COSMOS 2589             
1 64467U 25131A   26164.72494733 -.00000279  00000+0  00000+0 0  9994
2 64467   0.0440  85.5258 0000790 111.0994  64.3525  1.00262709  3523
CHINASAT 9C             
1 64470U 25132A   26164.96987681 -.00000237  00000+0  00000+0 0  9998
2 64470   0.0154 305.0227 0002549 136.0816 262.5368  1.00269897  4117
MTG-S1                  
1 64723U 25143A   26164.90381366 -.00000022  00000+0  00000+0 0  9995
2 64723   0.6059 338.2033 0000984  12.6018 233.3060  1.00271711  3386
DROR 1                  
1 64784U 25148A   26164.90372699 -.00000024  00000+0  00000+0 0  9998
2 64784   0.0267  52.6461 0002555 335.8147 195.0879  1.00271678  3260
SHIYAN-29               
1 65486U 25196A   26160.07536391 -.00000259  00000+0  00000+0 0  9996
2 65486  28.8121  18.6391 0010972 171.7452 188.2752  1.00256520  2799
NUSANTARA LIMA (NUSANT*)
1 65588U 25205A   26164.69245174 -.00000346  00000+0  00000+0 0  9995
2 65588   0.0479 148.3771 0000518  20.6783  95.0863  1.00266024  2683
TJS-20                  
1 66142U 25238A   26164.94507821  .00000037  00000+0  00000+0 0  9992
2 66142   5.4771 299.5674 0004519 161.6860 203.6455  1.00273607  2300
CMS-03 (GSAT-7R)        
1 66311U 25249B   26164.95439329 -.00000067  00000+0  00000+0 0  9994
2 66311   0.0164 303.3833 0001522 135.5400 240.9103  1.00270842  2310
VIASAT-3 F2             
1 66454U 25261A   26164.60372797 -.00000222  00000+0  00000+0 0  9996
2 66454   0.0436 156.3674 0000190 171.0236  72.8878  1.00268992  2753
SHIJIAN-28 (SJ-28)      
1 66549U 25277A   26164.87726363 -.00000346  00000+0  00000+0 0  9996
2 66549   4.5472 272.1892 0000797 348.4960  74.0866  1.00264285  2126
TJS-22                  
1 66990U 25290A   26164.88494147  .00000004  00000+0  00000+0 0  9994
2 66990   1.5364 286.5096 0001908 330.8598  29.8701  1.00273078  1995
TJS-23                  
1 67226U 25306A   26164.61166178  .00000031  00000+0  00000+0 0  9996
2 67226   5.5959 297.5073 0005323 168.5350 191.6092  1.00274595  1857
FENGYUN 4C              
1 67246U 25312A   26165.00214038 -.00000313  00000+0  00000+0 0  9992
2 67246   0.0524 136.6741 0000615  77.8676 181.5302  1.00270988  1746
SHIJIAN-29A (SJ-29A)    
1 67302U 25315A   26164.97732478 -.00000060  00000+0  00000+0 0  9995
2 67302   3.3893  95.1879 0003097  25.4664 206.6739  1.00269526  1589
SHIJIAN-29B (SJ-29B)    
1 67403U 25315C   26164.96657051 -.00000060  00000+0  00000+0 0  9999
2 67403   3.3881  95.1805 0003668  32.4244 195.8833  1.00269371  1653
ELEKTRO-L 5             
1 67756U 26028A   26164.06277987 -.00000084  00000+0  00000+0 0  9995
2 67756   0.2589 310.0950 0001727 180.7954 229.1334  1.00271169  1211
JAM-E JAM 1             
1 67757U 26028B   26164.91992639  .00000166  00000+0  00000+0 0  9998
2 67757   0.2673 301.2789 0001190 299.8714  26.1716  1.00273838  1087
