OBJECT_NAME,OBJECT_ID,EPOCH,MEAN_MOTION,ECCENTRICITY,INCLINATION,RA_OF_ASC_NODE,ARG_OF_PERICENTER,MEAN_ANOMALY,EPHEMERIS_TYPE,CLASSIFICATION_TYPE,NORAD_CAT_ID,ELEMENT_SET_NO,REV_AT_EPOCH,BSTAR,MEAN_MOTION_DOT,MEAN_MOTION_DDOT
NUVIEW BRAVO,2024-252D,2026-06-13T21:18:46.834848,1.00270509,.00017937,0.0685,150.8757,330.7274,17.1751,0,U,62457,999,376,0,-.205E-5,0
THURAYA-4,2025-001A,2026-06-13T22:17:29.127840,1.00268217,.0000366,0.0207,54.9364,183.7681,42.2096,0,U,62483,999,414,0,.149E-5,0
SHIJIAN-25 (SJ-25),2025-002A,2026-06-13T18:30:22.105152,1.00269176,.0052236,5.1048,61.1838,173.2448,72.5687,0,U,62485,999,532,0,-.344E-5,0
TJS-14,2025-017A,2026-06-14T00:06:40.643712,1.00272901,.00009575,0.7901,295.3835,289.5100,57.4580,0,U,62804,999,523,0,.126E-5,0
SPAINSAT NG I,2025-021A,2026-06-13T21:59:53.937600,1.00269378,.00002217,0.0123,328.2493,297.8551,355.1001,0,U,62852,999,395,0,.161E-5,0
QZS-6 (MICHIBIKI-6),2025-023A,2026-06-13T23:14:54.345120,1.00271512,.00017103,0.0458,66.5509,23.4795,251.4964,0,U,62876,999,491,0,-.224E-5,0
ZHONGXING-10R,2025-036A,2026-06-13T22:20:34.542240,1.00273191,.00034473,0.0327,247.5221,252.9895,207.3934,0,U,63075,999,492,0,-.342E-5,0
TJS-15,2025-045A,2026-06-13T17:43:11.731872,1.00272543,.0004685,0.2796,85.4960,296.5136,240.2268,0,U,63157,999,472,0,-.254E-5,0
TIANLIAN 2-04,2025-062A,2026-06-13T23:02:54.843072,1.00271678,.00317243,4.3834,274.4888,10.2947,43.2625,0,U,63361,999,457,0,-.122E-5,0
TJS-16,2025-064A,2026-06-13T15:37:37.053120,1.00271351,.0003372,1.0888,81.4744,288.9856,286.5162,0,U,63397,999,435,0,-.95E-6,0
TJS-17,2025-073A,2026-06-13T15:38:44.445120,1.00271862,.0002099,1.0546,82.7223,295.8246,282.6321,0,U,63524,999,425,0,-.59E-6,0
TIANLIAN 2-05,2025-084A,2026-06-14T00:08:18.109824,1.00269018,.00031098,4.4597,279.8724,146.3381,218.5426,0,U,63662,999,435,0,.137E-5,0
TJS-19,2025-097A,2026-06-13T17:46:26.186304,1.00266676,.0002297,3.2925,317.3828,240.9676,111.5152,0,U,63924,999,410,0,-.266E-5,0
CHINASAT 3B,2025-106A,2026-06-13T22:30:07.405344,1.00270274,.0002739,0.0264,97.2512,24.7279,285.1184,0,U,64062,999,402,0,-.35E-6,0
SXM-10,2025-122A,2026-06-13T21:09:25.233120,1.00270771,.00017614,0.0184,21.5157,339.0507,102.8084,0,U,64290,999,365,0,-.7E-7,0
COSMOS 2589,2025-131A,2026-06-13T17:23:55.449312,1.00262709,.000079,0.0440,85.5258,111.0994,64.3525,0,U,64467,999,352,0,-.279E-5,0
CHINASAT 9C,2025-132A,2026-06-13T23:16:37.356384,1.00269897,.0002549,0.0154,305.0227,136.0816,262.5368,0,U,64470,999,411,0,-.237E-5,0
MTG-S1,2025-143A,2026-06-13T21:41:29.500224,1.00271711,.00009847,0.6059,338.2033,12.6018,233.3060,0,U,64723,999,338,0,-.22E-6,0
DROR 1,2025-148A,2026-06-13T21:41:22.011936,1.00271678,.00025554,0.0267,52.6461,335.8147,195.0879,0,U,64784,999,326,0,-.24E-6,0
SHIYAN-29,2025-196A,2026-06-09T01:48:31.441824,1.00256520,.00109724,28.8121,18.6391,171.7452,188.2752,0,U,65486,999,279,0,-.259E-5,0
NUSANTARA LIMA (NUSANTARA 5),2025-205A,2026-06-13T16:37:07.830336,1.00266024,.00005181,0.0479,148.3771,20.6783,95.0863,0,U,65588,999,268,0,-.346E-5,0
TJS-20,2025-238A,2026-06-13T22:40:54.757344,1.00273607,.00045192,5.4771,299.5674,161.6860,203.6455,0,U,66142,999,230,0,.37E-6,0
CMS-03 (GSAT-7R),2025-249B,2026-06-13T22:54:19.580256,1.00270842,.00015229,0.0164,303.3833,135.5400,240.9103,0,U,66311,999,231,0,-.67E-6,0
VIASAT-3 F2,2025-261A,2026-06-13T14:29:22.096608,1.00268992,.00001902,0.0436,156.3674,171.0236,72.8878,0,U,66454,999,275,0,-.222E-5,0
SHIJIAN-28 (SJ-28),2025-277A,2026-06-13T21:03:15.577632,1.00264285,.00007978,4.5472,272.1892,348.4960,74.0866,0,U,66549,999,212,0,-.346E-5,0
TJS-22,2025-290A,2026-06-13T21:14:18.943008,1.00273078,.00019081,1.5364,286.5096,330.8598,29.8701,0,U,66990,999,199,0,.4E-7,0
TJS-23,2025-306A,2026-06-13T14:40:47.577792,1.00274595,.00053239,5.5959,297.5073,168.5350,191.6092,0,U,67226,999,185,0,.31E-6,0
FENGYUN 4C,2025-312A,2026-06-14T00:03:04.928832,1.00270988,.0000615,0.0524,136.6741,77.8676,181.5302,0,U,67246,999,174,0,-.313E-5,0
SHIJIAN-29A (SJ-29A),2025-315A,2026-06-13T23:27:20.860992,1.00269526,.00030977,3.3893,95.1879,25.4664,206.6739,0,U,67302,999,158,0,-.6E-6,0
SHIJIAN-29B (SJ-29B),2025-315C,2026-06-13T23:11:51.692064,1.00269371,.00036681,3.3881,95.1805,32.4244,195.8833,0,U,67403,999,165,0,-.6E-6,0
ELEKTRO-L 5,2026-028A,2026-06-13T01:30:24.180768,1.00271169,.00017273,0.2589,310.0950,180.7954,229.1334,0,U,67756,999,121,0,-.84E-6,0
JAM-E JAM 1,2026-028B,2026-06-13T22:04:41.640096,1.00273838,.00011903,0.2673,301.2789,299.8714,26.1716,0,U,67757,999,108,0,.166E-5,0
